{
  "64665": {
    "noradId": "64665",
    "tle": [
      "1 64665C 25139B   26065.11854167  .00016721  00000+0  56359-3 0   650",
      "2 64665  53.1565 143.7570 0001296  75.6627 353.8829 15.30172307    10"
    ]
  },
  "64666": {
    "noradId": "64666",
    "tle": [
      "1 64666C 25139C   26065.14215278  .00002994  00000+0  10094-3 0   651",
      "2 64666  53.1594 143.2906 0001210  83.4646 296.5319 15.30183135    13"
    ]
  },
  "64667": {
    "noradId": "64667",
    "tle": [
      "1 64667C 25139D   26065.14423611  .00017723  00000+0  59738-3 0   658",
      "2 64667  53.1577 143.8091 0001264  76.9636  46.9534 15.30171935    12"
    ]
  },
  "64668": {
    "noradId": "64668",
    "tle": [
      "1 64668C 25139E   26065.14006944 -.00034014  00000+0 -11461-2 0   659",
      "2 64668  53.1566 143.7246 0001259  90.9641  62.3163 15.30233050    15"
    ]
  },
  "64669": {
    "noradId": "64669",
    "tle": [
      "1 64669C 25139F   26065.14076389  .00018959  00000+0  63900-3 0   654",
      "2 64669  53.1568 143.6182 0001265  77.6775 131.8003 15.30171200    16"
    ]
  },
  "64670": {
    "noradId": "64670",
    "tle": [
      "1 64670C 25139G   26065.13937500  .00020970  00000+0  70690-3 0   656",
      "2 64670  53.1575 143.5551 0001245  88.6733 148.0596 15.30164599    19"
    ]
  },
  "64671": {
    "noradId": "64671",
    "tle": [
      "1 64671C 25139H   26065.14423611  .00021004  00000+0  70794-3 0   655",
      "2 64671  53.1572 143.7725 0001245  86.8689  54.4984 15.30169930    17"
    ]
  },
  "64672": {
    "noradId": "64672",
    "tle": [
      "1 64672C 25139J   26065.14493056  .00023424  00000+0  79051-3 0   659",
      "2 64672  53.1595 143.3782 0001310  81.0825 261.9957 15.30125790    15"
    ]
  },
  "64673": {
    "noradId": "64673",
    "tle": [
      "1 64673C 25139K   26065.14076389  .00013246  00000+0  44649-3 0   652",
      "2 64673  53.1588 143.4682 0001349  79.4317 205.6656 15.30174540    15"
    ]
  },
  "64674": {
    "noradId": "64674",
    "tle": [
      "1 64674C 25139L   26065.11854167  .00016426  00000+0  55369-3 0   652",
      "2 64674  53.1598 143.4662 0001341  96.9563 118.0059 15.30170853    11"
    ]
  },
  "64675": {
    "noradId": "64675",
    "tle": [
      "1 64675C 25139M   26065.11576389  .00023578  00000+0  79472-3 0   657",
      "2 64675  53.1587 144.0186 0001215  98.7308 187.5222 15.30166560    18"
    ]
  },
  "64676": {
    "noradId": "64676",
    "tle": [
      "1 64676C 25139N   26065.11784722  .00011414  00000+0  38476-3 0   655",
      "2 64676  53.1595 143.3651 0001302  93.9067 169.5747 15.30174330    19"
    ]
  },
  "64677": {
    "noradId": "64677",
    "tle": [
      "1 64677C 25139P   26065.11506944  .00003709  00000+0  12500-3 0   652",
      "2 64677  53.1594 133.1666 0001216  73.3198 319.7595 15.30187748    10"
    ]
  },
  "64678": {
    "noradId": "64678",
    "tle": [
      "1 64678C 25139Q   26065.11506944  .00012867  00000+0  43370-3 0   657",
      "2 64678  53.1580 143.9625 0001274  90.3655 221.1578 15.30175697    18"
    ]
  },
  "64679": {
    "noradId": "64679",
    "tle": [
      "1 64679C 25139R   26065.14006944  .00006328  00000+0  21331-3 0   654",
      "2 64679  53.1571 143.7770 0001283  85.2441  38.9833 15.30180381    18"
    ]
  },
  "64680": {
    "noradId": "64680",
    "tle": [
      "1 64680C 25139S   26065.13798611  .00006650  00000+0  22415-3 0   656",
      "2 64680  53.1598 143.3270 0001351  81.7098 263.6891 15.30180334    14"
    ]
  },
  "64681": {
    "noradId": "64681",
    "tle": [
      "1 64681C 25139T   26065.11715278  .00004903  00000+0  16525-3 0   657",
      "2 64681  53.1595 143.3543 0001206  77.1588 188.3185 15.30183537    14"
    ]
  },
  "64682": {
    "noradId": "64682",
    "tle": [
      "1 64682C 25139U   26065.12131944  .00030302  00000+0  10212-2 0   659",
      "2 64682  53.1600 133.1581 0001293  83.1918 326.8220 15.30162354    14"
    ]
  },
  "64683": {
    "noradId": "64683",
    "tle": [
      "1 64683C 25139V   26065.11993056  .00006595  00000+0  22227-3 0   656",
      "2 64683  53.1579 143.6179 0001023  92.1344  49.0390 15.30186097    15"
    ]
  },
  "64684": {
    "noradId": "64684",
    "tle": [
      "1 64684C 25139W   26065.14145833  .00008629  00000+0  29108-3 0   657",
      "2 64684  53.1564 143.6996 0000915 111.2877  55.5630 15.30152944    13"
    ]
  },
  "64685": {
    "noradId": "64685",
    "tle": [
      "1 64685C 25139X   26065.14076389  .00004668  00000+0  15733-3 0   655",
      "2 64685  53.1564 143.6681 0001454  86.9858  93.4060 15.30185175    11"
    ]
  },
  "64686": {
    "noradId": "64686",
    "tle": [
      "1 64686C 25139Y   26065.11784722  .00038235  00000+0  12878-2 0   653",
      "2 64686  53.1566 143.7406 0001351  69.9776   1.4312 15.30175058    14"
    ]
  },
  "64687": {
    "noradId": "64687",
    "tle": [
      "1 64687C 25139Z   26065.11506944  .00015527  00000+0  52336-3 0   655",
      "2 64687  53.1595 143.5013 0001313  77.2371 106.9522 15.30172898    13"
    ]
  },
  "64688": {
    "noradId": "64688",
    "tle": [
      "1 64688C 25139AA  26065.13798611  .00006708  00000+0  22606-3 0   650",
      "2 64688  53.1585 143.4964 0001349  76.0681 182.0626 15.30190004    16"
    ]
  },
  "64689": {
    "noradId": "64689",
    "tle": [
      "1 64689C 25139AB  26065.11715278  .00010226  00000+0  34468-3 0   656",
      "2 64689  53.1574 143.6740 0001040  66.6051  36.0114 15.30178343    15"
    ]
  },
  "64690": {
    "noradId": "64690",
    "tle": [
      "1 64690C 25139AC  26065.14145833  .00018552  00000+0  62525-3 0   650",
      "2 64690  53.1568 143.5958 0001161  83.0329 136.0910 15.30173510    11"
    ]
  },
  "64696": {
    "noradId": "64696",
    "tle": [
      "1 64696C 25142A   26065.14215278  .00006961  00000+0  58348-3 0   650",
      "2 64696  70.0013 323.3649 0002684 267.9140 336.7412 14.98316118    12"
    ]
  },
  "64697": {
    "noradId": "64697",
    "tle": [
      "1 64697C 25142B   26065.12062500  .00005362  00000+0  44943-3 0   657",
      "2 64697  70.0013 323.3123 0002533 276.0621 303.4390 14.98322652    14"
    ]
  },
  "64698": {
    "noradId": "64698",
    "tle": [
      "1 64698C 25142C   26065.11923611  .00009315  00000+0  78032-3 0   654",
      "2 64698  70.0016 323.5659 0003069 269.5041  54.8403 14.98337941    11"
    ]
  },
  "64699": {
    "noradId": "64699",
    "tle": [
      "1 64699C 25142D   26065.11993056  .00008823  00000+0  73941-3 0   652",
      "2 64699  69.9996 323.5335 0002875 272.0110  78.6494 14.98321736    16"
    ]
  },
  "64700": {
    "noradId": "64700",
    "tle": [
      "1 64700C 25142E   26065.11784722  .00009202  00000+0  82066-3 0   653",
      "2 64700  70.0016 323.5958 0002854 269.6311  20.8770 14.95903977    14"
    ]
  },
  "64701": {
    "noradId": "64701",
    "tle": [
      "1 64701C 25142F   26065.12131944  .00003678  00000+0  30825-3 0   654",
      "2 64701  70.0008 323.3068 0002784 272.1516 287.7042 14.98321788    17"
    ]
  },
  "64702": {
    "noradId": "64702",
    "tle": [
      "1 64702C 25142G   26065.13937500  .00007783  00000+0  65231-3 0   658",
      "2 64702  70.0018 323.2828 0002624 269.6919   5.0137 14.98318278    19"
    ]
  },
  "64703": {
    "noradId": "64703",
    "tle": [
      "1 64703C 25142H   26065.14215278  .00019486  00000+0  16318-2 0   655",
      "2 64703  70.0012 323.2101 0002715 273.4468  83.7614 14.98340386    19"
    ]
  },
  "64704": {
    "noradId": "64704",
    "tle": [
      "1 64704C 25142J   26065.14006944 -.00002029  00000+0 -17005-3 0   656",
      "2 64704  70.0013 323.3433 0002915 269.6922 346.2291 14.98334616    11"
    ]
  },
  "64705": {
    "noradId": "64705",
    "tle": [
      "1 64705C 25142K   26065.14423611  .00011247  00000+0  94277-3 0   657",
      "2 64705  70.0014 323.4798 0003087 270.5935 233.6703 14.98309896    13"
    ]
  },
  "64706": {
    "noradId": "64706",
    "tle": [
      "1 64706C 25142L   26065.11993056  .00009303  00000+0  77932-3 0   659",
      "2 64706  70.0011 323.3912 0002920 267.9796 240.1493 14.98338511    13"
    ]
  },
  "64707": {
    "noradId": "64707",
    "tle": [
      "1 64707C 25142M   26065.14006944  .00010038  00000+0  84158-3 0   659",
      "2 64707  70.0010 323.3647 0002828 265.2362 329.0916 14.98304191    19"
    ]
  },
  "64708": {
    "noradId": "64708",
    "tle": [
      "1 64708C 25142N   26065.11784722  .00003894  00000+0  32635-3 0   659",
      "2 64708  70.0015 323.6686 0003060 273.1690 336.2463 14.98323462    11"
    ]
  },
  "64709": {
    "noradId": "64709",
    "tle": [
      "1 64709C 25142P   26065.14076389  .00002814  00000+0  23590-3 0   657",
      "2 64709  70.0018 323.2865 0002786 268.4315  14.6836 14.98315549    13"
    ]
  },
  "64710": {
    "noradId": "64710",
    "tle": [
      "1 64710C 25142Q   26065.13868056  .00006737  00000+0  60097-3 0   659",
      "2 64710  70.0011 323.3900 0002485 268.4219 266.3797 14.95898192    17"
    ]
  },
  "64711": {
    "noradId": "64711",
    "tle": [
      "1 64711C 25142R   26065.14423611  .00009504  00000+0  79651-3 0   656",
      "2 64711  70.0009 323.3752 0002589 273.5083 319.8706 14.98319190    14"
    ]
  },
  "64712": {
    "noradId": "64712",
    "tle": [
      "1 64712C 25142S   26065.14284722  .00005495  00000+0  46055-3 0   652",
      "2 64712  70.0017 323.2303 0002807 273.9499  64.5022 14.98321433    11"
    ]
  },
  "64713": {
    "noradId": "64713",
    "tle": [
      "1 64713C 25142T   26065.11715278  .00007794  00000+0  65321-3 0   656",
      "2 64713  70.0020 323.5877 0002653 273.3004  17.3729 14.98323246    14"
    ]
  },
  "64714": {
    "noradId": "64714",
    "tle": [
      "1 64714C 25142U   26065.11923611  .00004885  00000+0  40948-3 0   655",
      "2 64714  70.0008 323.5139 0002492 269.3978 121.6579 14.98316514    10"
    ]
  }
}